[
    {
        "Altitude(m)": 563364.3062588475,
        "Argument of Periapsis(deg)": 0.013245982221427002,
        "Eccentricity": 0.0,
        "Inclination(deg)": 53.0,
        "Latitude(deg)": -32.24198077693384,
        "Longitude(deg)": -104.7869649905842,
        "Mean Anomaly(deg)": 318.3650857351552,
        "RAAN(deg)": 24.980286737056034,
        "Satellite Name": "Starlink Shell 1 128",
        "Satellite Number": 128,
        "Semi-Major Axis(m)": 6931778.249405717,
        "Time(s)": 380
    },
    {
        "Altitude(m)": 563189.0152867339,
        "Argument of Periapsis(deg)": 0.013594560700938237,
        "Eccentricity": 0.0,
        "Inclination(deg)": 53.0,
        "Latitude(deg)": -31.798919641513965,
        "Longitude(deg)": -104.30636449210293,
        "Mean Anomaly(deg)": 318.9919169387118,
        "RAAN(deg)": 24.979767966978564,
        "Satellite Name": "Starlink Shell 1 128",
        "Satellite Number": 128,
        "Semi-Major Axis(m)": 6931778.249405717,
        "Time(s)": 390
    },
    {
        "Altitude(m)": 563013.6238892181,
        "Argument of Periapsis(deg)": 0.013943139180449475,
        "Eccentricity": 0.0,
        "Inclination(deg)": 53.0,
        "Latitude(deg)": -31.353695795178318,
        "Longitude(deg)": -103.83071312647141,
        "Mean Anomaly(deg)": 319.6187481422686,
        "RAAN(deg)": 24.979249196901087,
        "Satellite Name": "Starlink Shell 1 128",
        "Satellite Number": 128,
        "Semi-Major Axis(m)": 6931778.249405717,
        "Time(s)": 400
    },
    {
        "Altitude(m)": 562838.1982501545,
        "Argument of Periapsis(deg)": 0.014291717659960712,
        "Eccentricity": 0.0,
        "Inclination(deg)": 53.0,
        "Latitude(deg)": -30.90636498996266,
        "Longitude(deg)": -103.35990192376956,
        "Mean Anomaly(deg)": 320.2455793458253,
        "RAAN(deg)": 24.978730426823617,
        "Satellite Name": "Starlink Shell 1 128",
        "Satellite Number": 128,
        "Semi-Major Axis(m)": 6931778.249405717,
        "Time(s)": 410
    },
    {
        "Altitude(m)": 562662.8044227803,
        "Argument of Periapsis(deg)": 0.014640296139471948,
        "Eccentricity": 0.0,
        "Inclination(deg)": 53.0,
        "Latitude(deg)": -30.456981732913242,
        "Longitude(deg)": -102.89382362497022,
        "Mean Anomaly(deg)": 320.872410549382,
        "RAAN(deg)": 24.978211656746147,
        "Satellite Name": "Starlink Shell 1 128",
        "Satellite Number": 128,
        "Semi-Major Axis(m)": 6931778.249405717,
        "Time(s)": 420
    },
    {
        "Altitude(m)": 562487.5083001205,
        "Argument of Periapsis(deg)": 0.014988874618983185,
        "Eccentricity": 0.0,
        "Inclination(deg)": 53.0,
        "Latitude(deg)": -30.00559931806137,
        "Longitude(deg)": -102.4323722035173,
        "Mean Anomaly(deg)": 321.49924175293876,
        "RAAN(deg)": 24.97769288666867,
        "Satellite Name": "Starlink Shell 1 128",
        "Satellite Number": 128,
        "Semi-Major Axis(m)": 6931778.249405717,
        "Time(s)": 430
    },
    {
        "Altitude(m)": 562312.3755854575,
        "Argument of Periapsis(deg)": 0.015337453098494424,
        "Eccentricity": 0.0,
        "Inclination(deg)": 53.0,
        "Latitude(deg)": -29.55226985814382,
        "Longitude(deg)": -101.97544238220043,
        "Mean Anomaly(deg)": 322.1260729564955,
        "RAAN(deg)": 24.977174116591197,
        "Satellite Name": "Starlink Shell 1 128",
        "Satellite Number": 128,
        "Semi-Major Axis(m)": 6931778.249405717,
        "Time(s)": 440
    },
    {
        "Altitude(m)": 562137.471762859,
        "Argument of Periapsis(deg)": 0.01568603157800566,
        "Eccentricity": 0.0,
        "Inclination(deg)": 53.0,
        "Latitude(deg)": -29.097044316023446,
        "Longitude(deg)": -101.52293065853796,
        "Mean Anomaly(deg)": 322.7529041600522,
        "RAAN(deg)": 24.976655346513724,
        "Satellite Name": "Starlink Shell 1 128",
        "Satellite Number": 128,
        "Semi-Major Axis(m)": 6931778.249405717,
        "Time(s)": 450
    },
    {
        "Altitude(m)": 561962.8620678516,
        "Argument of Periapsis(deg)": 0.0160346100575169,
        "Eccentricity": 0.0,
        "Inclination(deg)": 53.0,
        "Latitude(deg)": -28.63997253577336,
        "Longitude(deg)": -101.07473481324091,
        "Mean Anomaly(deg)": 323.3797353636089,
        "RAAN(deg)": 24.976136576436254,
        "Satellite Name": "Starlink Shell 1 128",
        "Satellite Number": 128,
        "Semi-Major Axis(m)": 6931778.249405717,
        "Time(s)": 460
    },
    {
        "Altitude(m)": 561788.6114581453,
        "Argument of Periapsis(deg)": 0.016383188537028134,
        "Eccentricity": 0.0,
        "Inclination(deg)": 53.0,
        "Latitude(deg)": -28.181103273388747,
        "Longitude(deg)": -100.63075341493311,
        "Mean Anomaly(deg)": 324.00656656716563,
        "RAAN(deg)": 24.975617806358777,
        "Satellite Name": "Starlink Shell 1 128",
        "Satellite Number": 128,
        "Semi-Major Axis(m)": 6931778.249405717,
        "Time(s)": 470
    },
    {
        "Altitude(m)": 561614.784584484,
        "Argument of Periapsis(deg)": 0.01673176701653937,
        "Eccentricity": 0.0,
        "Inclination(deg)": 53.0,
        "Latitude(deg)": -27.720484227096886,
        "Longitude(deg)": -100.19088683428909,
        "Mean Anomaly(deg)": 324.6333977707223,
        "RAAN(deg)": 24.975099036281303,
        "Satellite Name": "Starlink Shell 1 128",
        "Satellite Number": 128,
        "Semi-Major Axis(m)": 6931778.249405717,
        "Time(s)": 480
    },
    {
        "Altitude(m)": 561441.4457616927,
        "Argument of Periapsis(deg)": 0.017080345496050607,
        "Eccentricity": 0.0,
        "Inclination(deg)": 53.0,
        "Latitude(deg)": -27.25816206724026,
        "Longitude(deg)": -99.75503674210644,
        "Mean Anomaly(deg)": 325.2602289742791,
        "RAAN(deg)": 24.974580266203834,
        "Satellite Name": "Starlink Shell 1 128",
        "Satellite Number": 128,
        "Semi-Major Axis(m)": 6931778.249405717,
        "Time(s)": 490
    },
    {
        "Altitude(m)": 561268.6589397747,
        "Argument of Periapsis(deg)": 0.017428923975561842,
        "Eccentricity": 0.0,
        "Inclination(deg)": 53.0,
        "Latitude(deg)": -26.79418246571085,
        "Longitude(deg)": -99.32310560444166,
        "Mean Anomaly(deg)": 325.8870601778358,
        "RAAN(deg)": 24.97406149612636,
        "Satellite Name": "Starlink Shell 1 128",
        "Satellite Number": 128,
        "Semi-Major Axis(m)": 6931778.249405717,
        "Time(s)": 500
    },
    {
        "Altitude(m)": 561096.4876752642,
        "Argument of Periapsis(deg)": 0.01777750245507308,
        "Eccentricity": 0.0,
        "Inclination(deg)": 53.0,
        "Latitude(deg)": -26.328590124916396,
        "Longitude(deg)": -98.89499768791917,
        "Mean Anomaly(deg)": 326.5138913813925,
        "RAAN(deg)": 24.973542726048887,
        "Satellite Name": "Starlink Shell 1 128",
        "Satellite Number": 128,
        "Semi-Major Axis(m)": 6931778.249405717,
        "Time(s)": 510
    },
    {
        "Altitude(m)": 560924.9951026916,
        "Argument of Periapsis(deg)": 0.018126080934584315,
        "Eccentricity": 0.0,
        "Inclination(deg)": 53.0,
        "Latitude(deg)": -25.861428806265636,
        "Longitude(deg)": -98.47061854968787,
        "Mean Anomaly(deg)": 327.1407225849492,
        "RAAN(deg)": 24.973023955971417,
        "Satellite Name": "Starlink Shell 1 128",
        "Satellite Number": 128,
        "Semi-Major Axis(m)": 6931778.249405717,
        "Time(s)": 520
    },
    {
        "Altitude(m)": 560754.2439062927,
        "Argument of Periapsis(deg)": 0.018474659414095554,
        "Eccentricity": 0.0,
        "Inclination(deg)": 53.0,
        "Latitude(deg)": -25.392741358158037,
        "Longitude(deg)": -98.04987452510582,
        "Mean Anomaly(deg)": 327.7675537885059,
        "RAAN(deg)": 24.972505185893944,
        "Satellite Name": "Starlink Shell 1 128",
        "Satellite Number": 128,
        "Semi-Major Axis(m)": 6931778.249405717,
        "Time(s)": 530
    },
    {
        "Altitude(m)": 560584.2962918659,
        "Argument of Periapsis(deg)": 0.018823237893606792,
        "Eccentricity": 0.0,
        "Inclination(deg)": 53.0,
        "Latitude(deg)": -24.922569743470117,
        "Longitude(deg)": -97.63267372622389,
        "Mean Anomaly(deg)": 328.39438499206267,
        "RAAN(deg)": 24.97198641581647,
        "Satellite Name": "Starlink Shell 1 128",
        "Satellite Number": 128,
        "Semi-Major Axis(m)": 6931778.249405717,
        "Time(s)": 540
    },
    {
        "Altitude(m)": 560415.2139588959,
        "Argument of Periapsis(deg)": 0.019171816373118027,
        "Eccentricity": 0.0,
        "Inclination(deg)": 53.0,
        "Latitude(deg)": -24.450955066531243,
        "Longitude(deg)": -97.21892552549967,
        "Mean Anomaly(deg)": 329.02121619561933,
        "RAAN(deg)": 24.971467645738993,
        "Satellite Name": "Starlink Shell 1 128",
        "Satellite Number": 128,
        "Semi-Major Axis(m)": 6931778.249405717,
        "Time(s)": 550
    },
    {
        "Altitude(m)": 560247.0580729028,
        "Argument of Periapsis(deg)": 0.019520394852629266,
        "Eccentricity": 0.0,
        "Inclination(deg)": 53.0,
        "Latitude(deg)": -23.977937599583427,
        "Longitude(deg)": -96.80854003778536,
        "Mean Anomaly(deg)": 329.64804739917605,
        "RAAN(deg)": 24.970948875661524,
        "Satellite Name": "Starlink Shell 1 128",
        "Satellite Number": 128,
        "Semi-Major Axis(m)": 6931778.249405717,
        "Time(s)": 560
    }
]